# Made by eph2tle, compiled Dec 15 2023 22:07:13
# Run at Sat Dec 23 10:05:07 2023
#
#    The following TLEs (Two-Line Elements) were generated by fitting
# a numerically-integrated ephemeris,  based on the orbit given below,
# to the SDP4/SGP4 models.  Each TLE is good for the interval between
# its epoch and the epoch of the subsequent TLE (usually one day).
# The maximum deviation between the numerically integrated ephemerides
# and the TLE-based ephemeris, in kilometers,  is given for each TLE
# as the "worst residual".
#
#    This fitting is done using the 'eph2tle' code packaged with Find_Orb.
# The code has details on how the TLEs were computed :
#
#    https://github.com/Bill-Gray/find_orb/eph2tle.cpp
#
#    Be warned:  the error given is that between the numerically
# integrated ephems and the TLE model.  There will usually be at
# least some additional difference between the ephems and the actual
# motion of the satellite,  especially if the ephemerides are based
# on a short arc.  If the following orbital elements say something
# like "[based on] 10 observations 2015 Jan. 1-13",  and the TLEs
# are for 2015 May,  the extrapolation may be tenuous at best.  If
# your application requires a specific level of accuracy,  you may
# want to contact me;  I can give you some idea as to the fit of the
# underlying data (and possibly TLEs based on newer data).
#
#   You can usually find the underlying observational data,  and the
# fitted orbit,  residuals,  ephemerides,  and sometimes some comments
# about the object,  among the pages listed at
#
#    https://www.projectpluto.com/pluto/mpecs/pseudo.htm
#
#    WARNING:  for this object,  "normal" TLEs cannot be fitted.  (This
# usually means an object with an hyperbolic or nearly-parabolic orbit.)
# For this and similar cases,   an alternative model is used,  in which
# most of the traditional TLE data is replaced by six signed 8-digit hex
# numbers.  These six numbers are a state vector,  numerically integrated
# using a simplified force model.  This is necessary for objects at L2 or
# L1,  and sometimes for objects in high orbits where the SDP4/SGP4 model
# fails.  Some documentation is in 'get_el.cpp' in the source code at
# https://www.github.com/Bill-Gray/sat_code ; look for 'hex' in that file,
# with the actual integration done in 'sdp4.cpp'.  But be aware:  it's my
# own extension,  doesn't work with other code,  and is therefore used
# only when necessary.
#
#    Also,  if you use a TLE outside the "correct" time range (between
# its MJD and that of the next TLE),  all bets are off.  I've carefully
# computed and minimized the worst error over the "correct" time frame,
# but the ephemeris may (or may not) diverge wildly outside of it.
#
# Ephem range: 60310.000000 60676.000000 1.000000
# Created Sat Dec 23 10:04:59 2023
# Ephemeris start:  1 Jan 2024  0:00:00
# Ephemeris end:    1 Jan 2025  0:00:00
# Times are all TDT
# Positions/velocities are in ecliptic J2000
# Orbital elements:  Chang'e 5 = 2020-087A = NORAD 47097
#    Perigee 2023 Nov 4.51573 +/- 2.82e-5 TT = 12:22:39 (JD 2460253.01573)
# Epoch 2023 Nov  9.0 TT; AMR 0.016221 +/- 4.86e-5 m^2/kg          Find_Orb
# M  51.50511052 +/- 0.00041          (J2000 equator)
# n  11.48573044 +/- 2.23e-5          Peri.   92.58320 +/- 0.00050
# a419917.937 +/- 0.545               Node     7.44735 +/- 0.000019
# e   0.3360369 +/- 4.59e-7           Incl.   27.22631 +/- 0.000018
# P  31.3426d                H 29.21  G  0.15   U  5.6
# q 278810.006 +/- 0.399    Q 561025.868 +/- 0.764
# 78 of 302 observations 2023 Oct. 22-Nov. 24; mean residual 0".385
#
# 1 NoradU COSPAR   Epoch.epoch     dn/dt/2  d2n/dt2/6 BSTAR    T El# C
# 2 NoradU Inclina RAAscNode Eccent  ArgPeri MeanAno  MeanMotion Rev# C

# Worst residual: 3.10 km
# MJD 60310.000000 (2024 Jan  1  0:00)
Chang'e 5 = 2020-087A = NORAD 47097
1 47097U 20087A   23365.99919926 -0076G1UG +000WP2UP +000DBWR6H 21835
2 47097                          -0002CRU7 -0003YSTW -000291PC     06

# Worst residual: 2.68 km
# MJD 60311.000000 (2024 Jan  2  0:00)
Chang'e 5 = 2020-087A = NORAD 47097
1 47097U 20087A   24001.99919926 -007LVMHP -0001GANP -0005UZ5MH 21831
2 47097                          -000187OL -0003WV2T -00026B9O     00

# Worst residual: 6.08 km
# MJD 60312.000000 (2024 Jan  3  0:00)
Chang'e 5 = 2020-087A = NORAD 47097
1 47097U 20087A   24002.99919926 -007RSEVB -000YJ0F7 -000O058CH 21831
2 47097                          -000054WO -0003Q1GL -00020DIC     07

# Worst residual: 18.10 km
# MJD 60313.000000 (2024 Jan  4  0:00)
Chang'e 5 = 2020-087A = NORAD 47097
1 47097U 20087A   24003.99919926 -007OAP32 -001THRCT -0014DF33H 21839
2 47097                          +0000YJ5L -0003FI5G -0001RM2S     07

# Worst residual: 21.74 km
# MJD 60314.000000 (2024 Jan  5  0:00)
Chang'e 5 = 2020-087A = NORAD 47097
1 47097U 20087A   24004.99919926 -007B0CZR -002LNK4V -001IEDGAH 21830
2 47097                          +00024N0A -000330NN -0001H5JE     09

# Worst residual: 24.15 km
# MJD 60315.000000 (2024 Jan  6  0:00)
Chang'e 5 = 2020-087A = NORAD 47097
1 47097U 20087A   24005.99919926 -006NDQOB -003AQM1B -001TWIV5H 21833
2 47097                          +0003CA7J -0002PUPV -00016TJ8     08

# Worst residual: 18.25 km
# MJD 60316.000000 (2024 Jan  7  0:00)
Chang'e 5 = 2020-087A = NORAD 47097
1 47097U 20087A   24006.99919926 -005PCUOD -003WF4XG -0022YPOZH 21834
2 47097                          +0004IZDH -0002A2XT -0000WJX0     09

# Worst residual: 13.11 km
# MJD 60317.000000 (2024 Jan  8  0:00)
Chang'e 5 = 2020-087A = NORAD 47097
1 47097U 20087A   24007.99919926 -004HA8YX -004DMEPU -0029DEXIH 21836
2 47097                          +0005NZZB -0001NUUB -0000KBYC     07

# Worst residual: 18.25 km
# MJD 60318.000000 (2024 Jan  9  0:00)
Chang'e 5 = 2020-087A = NORAD 47097
1 47097U 20087A   24008.99919926 -002ZMAZY -004OB320 -002CE103H 21837
2 47097                          +0006QMD2 -0000R2HZ -00003Y27     03

# Worst residual: 21.79 km
# MJD 60319.000000 (2024 Jan 10  0:00)
Chang'e 5 = 2020-087A = NORAD 47097
1 47097U 20087A   24009.99919926 -0019C9K4 -004PFRE1 -002ASIOFH 21831
2 47097                          +0007MJRA +0000KCVK +0000IB46     06

# Worst residual: 17.37 km
# MJD 60320.000000 (2024 Jan 11  0:00)
Chang'e 5 = 2020-087A = NORAD 47097
1 47097U 20087A   24010.99919926 +000MOK0M -004DAITH -00235SVEH 21836
2 47097                          +0007ZLKZ +0002AWEM +00019VNZ     08

# Worst residual: 13.83 km
# MJD 60321.000000 (2024 Jan 12  0:00)
Chang'e 5 = 2020-087A = NORAD 47097
1 47097U 20087A   24011.99919926 +002HNDQ6 -003LAURD -001OQVSTH 21835
2 47097                          +0007B4IX +00045CPV +00021OTK     02

# Worst residual: 15.53 km
# MJD 60322.000000 (2024 Jan 13  0:00)
Chang'e 5 = 2020-087A = NORAD 47097
1 47097U 20087A   24012.99919926 +0041XAPJ -002EY45Y -0014CSUMH 21835
2 47097                          +0005LI41 +0005JCIR +0002MH6U     02

# Worst residual: 14.43 km
# MJD 60323.000000 (2024 Jan 14  0:00)
Chang'e 5 = 2020-087A = NORAD 47097
1 47097U 20087A   24013.99919926 +0055FP3Y -000ZVRXA -000GD4VQH 21832
2 47097                          +0003JT2Z +00065MSU +0002VGFV     07

# Worst residual: 12.54 km
# MJD 60324.000000 (2024 Jan 15  0:00)
Chang'e 5 = 2020-087A = NORAD 47097
1 47097U 20087A   24014.99919926 +005RV652 +000HLDVP +0008HPT7H 21837
2 47097                          +0001P1IP +00064ZJZ +0002UCJV     03

# Worst residual: 11.02 km
# MJD 60325.000000 (2024 Jan 16  0:00)
Chang'e 5 = 2020-087A = NORAD 47097
1 47097U 20087A   24015.99919926 +005ZRAUB +001X3LPM +000WA296H 21831
2 47097                          +00006UX0 +0005QKUS +0002N5HD     07

# Worst residual: 10.05 km
# MJD 60326.000000 (2024 Jan 17  0:00)
Chang'e 5 = 2020-087A = NORAD 47097
1 47097U 20087A   24016.99919926 +005W3TEV +003867L1 +001HWUALH 21830
2 47097                          -0000ZIGO +00054TES +0002CQUS     01

# Worst residual: 10.87 km
# MJD 60327.000000 (2024 Jan 18  0:00)
Chang'e 5 = 2020-087A = NORAD 47097
1 47097U 20087A   24017.99919926 +005JGQJN +004DHQLJ +0020TPCYH 21838
2 47097                          -0001WGUN +0004EZSI +00020NM7     04

# Worst residual: 16.42 km
# MJD 60328.000000 (2024 Jan 19  0:00)
Chang'e 5 = 2020-087A = NORAD 47097
1 47097U 20087A   24018.99919926 +004ZSPNE +005C9UDP +002GPKAIH 21838
2 47097                          -0002MGMG +0003MFPB +0001NLBB     06

# Worst residual: 23.91 km
# MJD 60329.000000 (2024 Jan 20  0:00)
Chang'e 5 = 2020-087A = NORAD 47097
1 47097U 20087A   24019.99919926 +004AHQAY +0063X5ED +002TDT98H 21836
2 47097                          -00037TQG +0002RMJC +00019YM6     08

# Worst residual: 17.54 km
# MJD 60330.000000 (2024 Jan 21  0:00)
Chang'e 5 = 2020-087A = NORAD 47097
1 47097U 20087A   24020.99919926 +003GEYO0 +006NZB6H +0032RHUTH 21831
2 47097                          -0003QFUS +0001VFK4 +0000W881     05

# Worst residual: 14.24 km
# MJD 60331.000000 (2024 Jan 22  0:00)
Chang'e 5 = 2020-087A = NORAD 47097
1 47097U 20087A   24021.99919926 +002I5MIR +0070AKLZ +0038VC28H 21837
2 47097                          -00046JYC +0000Z99E +0000IOLJ     08

# Worst residual: 5.59 km
# MJD 60332.000000 (2024 Jan 23  0:00)
Chang'e 5 = 2020-087A = NORAD 47097
1 47097U 20087A   24022.99919926 +001GFWGV +0074XPEH +003BQ23RH 21833
2 47097                          -0004J0V8 +00003FT8 +00005174     00

# Worst residual: 6.35 km
# MJD 60333.000000 (2024 Jan 24  0:00)
Chang'e 5 = 2020-087A = NORAD 47097
1 47097U 20087A   24023.99919926 +000CA0TO +0071WQAJ +003B8IYUH 21833
2 47097                          -0004QTO0 -0000STEH -0000988S     01

# Worst residual: 4.92 km
# MJD 60334.000000 (2024 Jan 25  0:00)
Chang'e 5 = 2020-087A = NORAD 47097
1 47097U 20087A   24024.99919926 -000T47A3 +006R028L +00377SBLH 21833
2 47097                          -0004T54V -0001QC6H -0000OGDF     02

